[
  {
    "URL": "http://www.just-eat.co.uk/restaurants-cn-chinese-cardiff/menu",
    "id": 1,
    "address": "228 City Road",
    "address_line_2": "Cardiff",
    "name": ".CN Chinese",
    "outcode": "CF24",
    "postcode": "3JH",
    "rating": 5,
    "type_of_food": "Chinese"
  },
  {
    "URL": "http://www.just-eat.co.uk/restaurants-atthai-ss9/menu",
    "id": 2,
    "address": "376 Rayleigh Road",
    "address_line_2": "Essex",
    "name": "@ Thai",
    "outcode": "SS9",
    "postcode": "5PT",
    "rating": 5.5,
    "type_of_food": "Thai"
  },
  {
    "URL": "http://www.just-eat.co.uk/restaurants-atthairestaurant/menu",
    "id": 3,
    "address": "30 Greyhound Road Hammersmith",
    "address_line_2": "London",
    "name": "@ Thai Restaurant",
    "outcode": "W6",
    "postcode": "8NX",
    "rating": 4.5,
    "type_of_food": "Thai"
  },
  {
    "URL": "http://www.just-eat.co.uk/restaurants-atthairestaurant/menu",
    "id": 4,
    "address": "30 Greyhound Road Hammersmith",
    "address_line_2": "London",
    "name": "@ Thai Restaurant",
    "outcode": "W6",
    "postcode": "8NX",
    "rating": 4.5,
    "type_of_food": "Thai"
  },
  {
    "URL": "http://www.just-eat.co.uk/restaurants-indiancom-ch4/menu",
    "id": 5,
    "address": "9 Broughton Hall Road",
    "address_line_2": "Broughton",
    "name": "@Indian.com",
    "outcode": "CH4",
    "postcode": "0QR",
    "rating": 6,
    "type_of_food": "Curry"
  },
  {
    "URL": "http://www.just-eat.co.uk/restaurants-007takeaway-s65/menu",
    "id": 6,
    "address": "6 Drummond Street",
    "address_line_2": "Rotherham",
    "name": "007 Takeaway",
    "outcode": "S65",
    "postcode": "1HY",
    "rating": 6,
    "type_of_food": "Pizza"
  },
  {
    "URL": "http://www.just-eat.co.uk/restaurants-042-restaurant-e11/menu",
    "id": 7,
    "address": "885 High Road Leytonstone",
    "address_line_2": "London",
    "name": "042 Restaurant & Bar",
    "outcode": "E11",
    "postcode": "1HR",
    "rating": 3,
    "type_of_food": "African"
  },
  {
    "URL": "http://www.just-eat.co.uk/restaurants-042-restaurant-e11/menu",
    "id": 8,
    "address": "885 High Road Leytonstone",
    "address_line_2": "London",
    "name": "042 Restaurant & Bar",
    "outcode": "E11",
    "postcode": "1HR",
    "rating": 3,
    "type_of_food": "African"
  },
  {
    "URL": "http://www.just-eat.co.uk/restaurants-042-restaurant-e11/menu",
    "id": 9,
    "address": "885 High Road Leytonstone",
    "address_line_2": "London",
    "name": "042 Restaurant & Bar",
    "outcode": "E11",
    "postcode": "1HR",
    "rating": 3,
    "type_of_food": "African"
  },
  {
    "URL": "http://www.just-eat.co.uk/restaurants-1-2-3-chinese-rowlands-gill/menu",
    "id": 10,
    "address": "Unit 4 Spencer House",
    "address_line_2": "Swalwell",
    "name": "1 2 3 Chinese",
    "outcode": "NE16",
    "postcode": "3DS",
    "rating": 4.5,
    "type_of_food": "Chinese"
  },
  {
    "URL": "http://www.just-eat.co.uk/restaurants-1-2-3-chinese-rowlands-gill/menu",
    "id": 11,
    "address": "Unit 4 Spencer House",
    "address_line_2": "Swalwell",
    "name": "1 2 3 Chinese",
    "outcode": "NE16",
    "postcode": "3DS",
    "rating": 4.5,
    "type_of_food": "Chinese"
  },
  {
    "URL": "http://www.just-eat.co.uk/restaurants-100-degrees-chinese-restaurant-pontypridd/menu",
    "id": 12,
    "address": "67 Park Street",
    "address_line_2": "Treforest",
    "name": "100 Degrees Chinese Restaurant",
    "outcode": "CF37",
    "postcode": "1SN",
    "rating": 5,
    "type_of_food": "Chinese"
  },
  {
    "URL": "http://www.just-eat.co.uk/restaurants-100menu-wn1/menu",
    "id": 13,
    "address": "50 Wallgate",
    "address_line_2": "Wigan",
    "name": "100 Menu",
    "outcode": "WN1",
    "postcode": "1JU",
    "rating": 5,
    "type_of_food": "Chinese"
  },
  {
    "URL": "http://www.just-eat.co.uk/restaurants-104-turkish-BBQ/menu",
    "id": 14,
    "address": "104 Tanners Lane",
    "address_line_2": "Essex",
    "name": "104 Turkish BBQ",
    "outcode": "IG6",
    "postcode": "1QE",
    "rating": 5,
    "type_of_food": "Turkish"
  },
  {
    "URL": "http://www.just-eat.co.uk/restaurants-109restaurant-w2/menu",
    "id": 15,
    "address": "109 Westbourne Park Road",
    "address_line_2": "London",
    "name": "109 Ristorante",
    "outcode": "W2",
    "postcode": "5QL",
    "rating": 5,
    "type_of_food": "Pizza"
  },
  {
    "URL": "http://www.just-eat.co.uk/restaurants-12inchpizzas-ss14/menu",
    "id": 16,
    "address": "22A Steeple View",
    "address_line_2": "Basildon",
    "name": "12 Inch Pizzas",
    "outcode": "SS14",
    "postcode": "1SF",
    "rating": 4.5,
    "type_of_food": "Pizza"
  },
  {
    "URL": "http://www.just-eat.co.uk/restaurants-1ak-kitchen/menu",
    "id": 17,
    "address": "198 Church Street",
    "address_line_2": "Blackpool",
    "name": "1AK Kitchen",
    "outcode": "FY1",
    "postcode": "3PX",
    "rating": 4,
    "type_of_food": "Indian"
  },
  {
    "URL": "http://www.just-eat.co.uk/restaurants-1jia-restaurant/menu",
    "id": 18,
    "address": "38 King Street",
    "address_line_2": "Wrexham",
    "name": "1 JIA Restaurant",
    "outcode": "LL11",
    "postcode": "1HF",
    "rating": 5,
    "type_of_food": "Chinese"
  },
  {
    "URL": "http://www.just-eat.co.uk/restaurants-1-masala/menu",
    "id": 19,
    "address": "1B Arnold Street",
    "address_line_2": "Nottingham",
    "name": "1 Masala",
    "outcode": "NG1",
    "postcode": "4HJ",
    "rating": 4.5,
    "type_of_food": "Indian"
  },
  {
    "URL": "http://www.just-eat.co.uk/restaurants-1stchoicepizza-ts24/menu",
    "id": 20,
    "address": "129 York Road",
    "address_line_2": "Hartlepool",
    "name": "1st Choice Pizza",
    "outcode": "TS24",
    "postcode": "8LX",
    "rating": 5,
    "type_of_food": "Pizza"
  },
  {
    "URL": "http://www.just-eat.co.uk/restaurants-unique-chinese-cardiff/menu",
    "id": 21,
    "address": "123 Unique Street",
    "address_line_2": "Cardiff",
    "name": "Unique Chinese",
    "outcode": "CF11",
    "postcode": "2XY",
    "rating": 4.2,
    "type_of_food": "Chinese"
  },
  {
    "URL": "http://www.just-eat.co.uk/restaurants-one-thai-ss9/menu",
    "id": 22,
    "address": "456 Seaside Road",
    "address_line_2": "Essex",
    "name": "One Thai",
    "outcode": "SS9",
    "postcode": "4AB",
    "rating": 4.8,
    "type_of_food": "Thai"
  },
  {
    "URL": "http://www.just-eat.co.uk/restaurants-spicy-indian-ch4/menu",
    "id": 23,
    "address": "789 Spices Avenue",
    "address_line_2": "Broughton",
    "name": "Spicy Indian",
    "outcode": "CH4",
    "postcode": "5CD",
    "rating": 4.5,
    "type_of_food": "Curry"
  },
  {
    "URL": "http://www.just-eat.co.uk/restaurants-pizza-lover-s65/menu",
    "id": 24,
    "address": "101 Pizzaland",
    "address_line_2": "Rotherham",
    "name": "Pizza Lover",
    "outcode": "S65",
    "postcode": "2ZZ",
    "rating": 4.9,
    "type_of_food": "Pizza"
  },
  {
    "URL": "http://www.just-eat.co.uk/restaurants-taste-of-asia-e11/menu",
    "id": 25,
    "address": "222 Spice Street",
    "address_line_2": "London",
    "name": "Taste of Asia",
    "outcode": "E11",
    "postcode": "3AB",
    "rating": 4.3,
    "type_of_food": "Asian"
  },
  {
    "URL": "http://www.just-eat.co.uk/restaurants-sizzling-bites-ne16/menu",
    "id": 26,
    "address": "333 Flaming Road",
    "address_line_2": "Swalwell",
    "name": "Sizzling Bites",
    "outcode": "NE16",
    "postcode": "4CD",
    "rating": 4.7,
    "type_of_food": "Grill"
  },
  {
    "URL": "http://www.just-eat.co.uk/restaurants-veggie-delight-cf37/menu",
    "id": 27,
    "address": "444 Veggie Lane",
    "address_line_2": "Treforest",
    "name": "Veggie Delight",
    "outcode": "CF37",
    "postcode": "1XY",
    "rating": 4.0,
    "type_of_food": "Vegetarian"
  },
  {
    "URL": "http://www.just-eat.co.uk/restaurants-chef-special-wn1/menu",
    "id": 28,
    "address": "555 Chef Boulevard",
    "address_line_2": "Wigan",
    "name": "Chef's Special",
    "outcode": "WN1",
    "postcode": "2AB",
    "rating": 4.5,
    "type_of_food": "Specialty"
  },
  {
    "URL": "http://www.just-eat.co.uk/restaurants-bbq-delight-ig6/menu",
    "id": 29,
    "address": "666 BBQ Street",
    "address_line_2": "Essex",
    "name": "BBQ Delight",
    "outcode": "IG6",
    "postcode": "3CD",
    "rating": 4.2,
    "type_of_food": "Barbecue"
  },
  {
    "URL": "http://www.just-eat.co.uk/restaurants-italian-oasis-w2/menu",
    "id": 30,
    "address": "777 Pasta Lane",
    "address_line_2": "London",
    "name": "Italian Oasis",
    "outcode": "W2",
    "postcode": "5AB",
    "rating": 4.8,
    "type_of_food": "Italian"
  },
  {
    "URL": "http://www.just-eat.co.uk/restaurants-fusion-flavors-ls18/menu",
    "id": 31,
    "address": "888 Fusion Street",
    "address_line_2": "West Yorkshire",
    "name": "Fusion Flavors",
    "outcode": "LS18",
    "postcode": "3CD",
    "rating": 4.6,
    "type_of_food": "Fusion"
  },
  {
    "URL": "http://www.just-eat.co.uk/restaurants-mexican-spice-pa7/menu",
    "id": 32,
    "address": "999 Spicy Road",
    "address_line_2": "Bishopton",
    "name": "Mexican Spice",
    "outcode": "PA7",
    "postcode": "5AB",
    "rating": 4.3,
    "type_of_food": "Mexican"
  },
  {
    "URL": "http://www.just-eat.co.uk/restaurants-tasty-bites-ls26/menu",
    "id": 33,
    "address": "123 Tasty Avenue",
    "address_line_2": "Leeds",
    "name": "Tasty Bites",
    "outcode": "LS26",
    "postcode": "2XY",
    "rating": 4.7,
    "type_of_food": "Snacks"
  },
  {
    "URL": "http://www.just-eat.co.uk/restaurants-burger-heaven-ws11/menu",
    "id": 34,
    "address": "456 Burger Street",
    "address_line_2": "Cannock",
    "name": "Burger Heaven",
    "outcode": "WS11",
    "postcode": "4AB",
    "rating": 4.9,
    "type_of_food": "Burgers"
  },
  {
    "URL": "http://www.just-eat.co.uk/restaurants-deli-delight-bs7/menu",
    "id": 35,
    "address": "789 Deli Lane",
    "address_line_2": "Bristol",
    "name": "Deli Delight",
    "outcode": "BS7",
    "postcode": "5CD",
    "rating": 4.5,
    "type_of_food": "Deli"
  },
  {
    "URL": "http://www.just-eat.co.uk/restaurants-pasta-paradise-eh1/menu",
    "id": 36,
    "address": "101 Pasta Road",
    "address_line_2": "Edinburgh",
    "name": "Pasta Paradise",
    "outcode": "EH1",
    "postcode": "2ZZ",
    "rating": 4.2,
    "type_of_food": "Pasta"
  },
  {
    "URL": "http://www.just-eat.co.uk/restaurants-greek-gusto-ls1/menu",
    "id": 37,
    "address": "222 Greek Street",
    "address_line_2": "Leeds",
    "name": "Greek Gusto",
    "outcode": "LS1",
    "postcode": "3AB",
    "rating": 4.8,
    "type_of_food": "Greek"
  },
  {
    "URL": "http://www.just-eat.co.uk/restaurants-noodle-nirvana-ng1/menu",
    "id": 38,
    "address": "333 Noodle Lane",
    "address_line_2": "Nottingham",
    "name": "Noodle Nirvana",
    "outcode": "NG1",
    "postcode": "4CD",
    "rating": 4.3,
    "type_of_food": "Noodles"
  },
  {
    "URL": "http://www.just-eat.co.uk/restaurants-choco-delight-ts24/menu",
    "id": 39,
    "address": "444 Chocolate Street",
    "address_line_2": "Hartlepool",
    "name": "Choco Delight",
    "outcode": "TS24",
    "postcode": "1XY",
    "rating": 4.7,
    "type_of_food": "Desserts"
  },
  {
    "URL": "http://www.just-eat.co.uk/restaurants-vegan-vibes-pr1/menu",
    "id": 40,
    "address": "555 Vegan Avenue",
    "address_line_2": "Preston",
    "name": "Vegan Vibes",
    "outcode": "PR1",
    "postcode": "2AB",
    "rating": 4.0,
    "type_of_food": "Vegan"
  }
]
